[{"OBJECT_NAME":"OBJECT A","OBJECT_ID":"2023-085A","EPOCH":"2026-03-09T21:42:39.504096","MEAN_MOTION":15.28003151,"ECCENTRICITY":0.00073195,"INCLINATION":97.4858,"RA_OF_ASC_NODE":178.2033,"ARG_OF_PERICENTER":32.2499,"MEAN_ANOMALY":327.9186,"EPHEMERIS_TYPE":0,"CLASSIFICATION_TYPE":"U","NORAD_CAT_ID":57004,"ELEMENT_SET_NO":999,"REV_AT_EPOCH":15139,"BSTAR":0.00063583858,"MEAN_MOTION_DOT":0.0001733,"MEAN_MOTION_DDOT":0},{"OBJECT_NAME":"STARLINK-30563","OBJECT_ID":"2023-156Q","EPOCH":"2026-03-09T10:45:45.653184","MEAN_MOTION":15.30187813,"ECCENTRICITY":0.00013197,"INCLINATION":53.1611,"RA_OF_ASC_NODE":76.8763,"ARG_OF_PERICENTER":66.8228,"MEAN_ANOMALY":293.2912,"EPHEMERIS_TYPE":0,"CLASSIFICATION_TYPE":"U","NORAD_CAT_ID":58042,"ELEMENT_SET_NO":999,"REV_AT_EPOCH":13631,"BSTAR":4.7106648e-5,"MEAN_MOTION_DOT":1.036e-5,"MEAN_MOTION_DDOT":0}]
